{
  "type": "FeatureCollection",
  "features": [
    {
      "type": "Feature",
      "properties": {
        "norad_id": 30405,
        "name": "FENGYUN 1C DEB",
        "group": "fengyun-1c-debris",
        "lat": 6.963452449043635,
        "lon": 88.29018313010421,
        "alt_km": 816.5413885383132,
        "timestamp": "2025-12-21T07:34:34.793154+00:00",
        "meta_object_name": "FENGYUN 1C DEB",
        "meta_object_id": "1999-025ADU",
        "meta_epoch": "2025-12-20T11:59:31.679808",
        "meta_mean_motion": 14.28975784,
        "meta_eccentricity": 0.0051098,
        "meta_inclination": 98.7941,
        "meta_ra_of_asc_node": 88.5508,
        "meta_arg_of_pericenter": 131.7896,
        "meta_mean_anomaly": 0.4402,
        "meta_ephemeris_type": 0,
        "meta_classification_type": "U",
        "meta_norad_cat_id": 30405,
        "meta_element_set_no": 999,
        "meta_rev_at_epoch": 97506,
        "meta_bstar": 0.0010577,
        "meta_mean_motion_dot": 2.668e-05,
        "meta_mean_motion_ddot": 0,
        "tle_line1": "1 30405U 99025ADU 25354.49967222  .00002668  00000+0  10577-2 0  9990",
        "tle_line2": "2 30405  98.7941  88.5508 0051098 131.7896   0.4402 14.28975784975066"
      },
      "geometry": {
        "type": "Point",
        "coordinates": [
          88.29018313010421,
          6.963452449043635
        ]
      }
    },
    {
      "type": "Feature",
      "properties": {
        "norad_id": 30406,
        "name": "FENGYUN 1C DEB",
        "group": "fengyun-1c-debris",
        "lat": -20.107298376665433,
        "lon": -111.8542709498375,
        "alt_km": 833.651613426834,
        "timestamp": "2025-12-21T07:34:34.793163+00:00",
        "meta_object_name": "FENGYUN 1C DEB",
        "meta_object_id": "1999-025ADV",
        "meta_epoch": "2025-12-20T22:57:01.151712",
        "meta_mean_motion": 13.5924348,
        "meta_eccentricity": 0.02830745,
        "meta_inclination": 98.6212,
        "meta_ra_of_asc_node": 244.6453,
        "meta_arg_of_pericenter": 338.5903,
        "meta_mean_anomaly": 43.2684,
        "meta_ephemeris_type": 0,
        "meta_classification_type": "U",
        "meta_norad_cat_id": 30406,
        "meta_element_set_no": 999,
        "meta_rev_at_epoch": 93278,
        "meta_bstar": 0.0016505811,
        "meta_mean_motion_dot": 1.545e-05,
        "meta_mean_motion_ddot": 0,
        "tle_line1": "1 30406U 99025ADV 25354.95626333  .00001545  00000+0  16506-2 0  9998",
        "tle_line2": "2 30406  98.6212 244.6453 0283074 338.5903  43.2684 13.59243480932781"
      },
      "geometry": {
        "type": "Point",
        "coordinates": [
          -111.8542709498375,
          -20.107298376665433
        ]
      }
    },
    {
      "type": "Feature",
      "properties": {
        "norad_id": 30409,
        "name": "FENGYUN 1C DEB",
        "group": "fengyun-1c-debris",
        "lat": 14.808231476267862,
        "lon": -20.134628376630733,
        "alt_km": 779.6053441140757,
        "timestamp": "2025-12-21T07:34:34.793172+00:00",
        "meta_object_name": "FENGYUN 1C DEB",
        "meta_object_id": "1999-025ADY",
        "meta_epoch": "2025-12-19T23:18:48.362976",
        "meta_mean_motion": 14.03755513,
        "meta_eccentricity": 0.0167704,
        "meta_inclination": 98.4735,
        "meta_ra_of_asc_node": 340.8701,
        "meta_arg_of_pericenter": 345.2506,
        "meta_mean_anomaly": 79.1896,
        "meta_ephemeris_type": 0,
        "meta_classification_type": "U",
        "meta_norad_cat_id": 30409,
        "meta_element_set_no": 999,
        "meta_rev_at_epoch": 96531,
        "meta_bstar": 0.00066171,
        "meta_mean_motion_dot": 1.139e-05,
        "meta_mean_motion_ddot": 0,
        "tle_line1": "1 30409U 99025ADY 25353.97139309  .00001139  00000+0  66171-3 0  9997",
        "tle_line2": "2 30409  98.4735 340.8701 0167704 345.2506  79.1896 14.03755513965315"
      },
      "geometry": {
        "type": "Point",
        "coordinates": [
          -20.134628376630733,
          14.808231476267862
        ]
      }
    },
    {
      "type": "Feature",
      "properties": {
        "norad_id": 30411,
        "name": "FENGYUN 1C DEB",
        "group": "fengyun-1c-debris",
        "lat": -0.6792652218418812,
        "lon": -94.39335468104447,
        "alt_km": 858.301089616115,
        "timestamp": "2025-12-21T07:34:34.793181+00:00",
        "meta_object_name": "FENGYUN 1C DEB",
        "meta_object_id": "1999-025AEA",
        "meta_epoch": "2025-12-20T17:55:57.409536",
        "meta_mean_motion": 14.0768999,
        "meta_eccentricity": 0.01233574,
        "meta_inclination": 98.5821,
        "meta_ra_of_asc_node": 264.9637,
        "meta_arg_of_pericenter": 84.0478,
        "meta_mean_anomaly": 277.4735,
        "meta_ephemeris_type": 0,
        "meta_classification_type": "U",
        "meta_norad_cat_id": 30411,
        "meta_element_set_no": 999,
        "meta_rev_at_epoch": 96096,
        "meta_bstar": 0.0012987114,
        "meta_mean_motion_dot": 2.314e-05,
        "meta_mean_motion_ddot": 0,
        "tle_line1": "1 30411U 99025AEA 25354.74719224  .00002314  00000+0  12987-2 0  9997",
        "tle_line2": "2 30411  98.5821 264.9637 0123357  84.0478 277.4735 14.07689990960961"
      },
      "geometry": {
        "type": "Point",
        "coordinates": [
          -94.39335468104447,
          -0.6792652218418812
        ]
      }
    },
    {
      "type": "Feature",
      "properties": {
        "norad_id": 30413,
        "name": "FENGYUN 1C DEB",
        "group": "fengyun-1c-debris",
        "lat": 76.86176323676354,
        "lon": 165.15775730722976,
        "alt_km": 785.9211565836486,
        "timestamp": "2025-12-21T07:34:34.793190+00:00",
        "meta_object_name": "FENGYUN 1C DEB",
        "meta_object_id": "1999-025AEC",
        "meta_epoch": "2025-12-20T14:40:44.317056",
        "meta_mean_motion": 14.3261216,
        "meta_eccentricity": 0.0044577,
        "meta_inclination": 102.0627,
        "meta_ra_of_asc_node": 230.5505,
        "meta_arg_of_pericenter": 195.7067,
        "meta_mean_anomaly": 220.2771,
        "meta_ephemeris_type": 0,
        "meta_classification_type": "U",
        "meta_norad_cat_id": 30413,
        "meta_element_set_no": 999,
        "meta_rev_at_epoch": 97252,
        "meta_bstar": 0.0013294,
        "meta_mean_motion_dot": 3.578e-05,
        "meta_mean_motion_ddot": 0,
        "tle_line1": "1 30413U 99025AEC 25354.61162404  .00003578  00000+0  13294-2 0  9992",
        "tle_line2": "2 30413 102.0627 230.5505 0044577 195.7067 220.2771 14.32612160972525"
      },
      "geometry": {
        "type": "Point",
        "coordinates": [
          165.15775730722976,
          76.86176323676354
        ]
      }
    },
    {
      "type": "Feature",
      "properties": {
        "norad_id": 30414,
        "name": "FENGYUN 1C DEB",
        "group": "fengyun-1c-debris",
        "lat": -40.98926635392311,
        "lon": -34.992486975965136,
        "alt_km": 761.4542366151945,
        "timestamp": "2025-12-21T07:34:34.793206+00:00",
        "meta_object_name": "FENGYUN 1C DEB",
        "meta_object_id": "1999-025AED",
        "meta_epoch": "2025-12-20T08:47:03.088608",
        "meta_mean_motion": 14.34252638,
        "meta_eccentricity": 0.00581326,
        "meta_inclination": 99.0801,
        "meta_ra_of_asc_node": 151.9985,
        "meta_arg_of_pericenter": 166.8813,
        "meta_mean_anomaly": 193.3898,
        "meta_ephemeris_type": 0,
        "meta_classification_type": "U",
        "meta_norad_cat_id": 30414,
        "meta_element_set_no": 999,
        "meta_rev_at_epoch": 97196,
        "meta_bstar": 0.0016407554,
        "meta_mean_motion_dot": 4.647e-05,
        "meta_mean_motion_ddot": 0,
        "tle_line1": "1 30414U 99025AED 25354.36600797  .00004647  00000+0  16408-2 0  9995",
        "tle_line2": "2 30414  99.0801 151.9985 0058132 166.8813 193.3898 14.34252638971962"
      },
      "geometry": {
        "type": "Point",
        "coordinates": [
          -34.992486975965136,
          -40.98926635392311
        ]
      }
    },
    {
      "type": "Feature",
      "properties": {
        "norad_id": 30415,
        "name": "FENGYUN 1C DEB",
        "group": "fengyun-1c-debris",
        "lat": 80.26999498368328,
        "lon": -41.78719066343759,
        "alt_km": 1156.8402421906576,
        "timestamp": "2025-12-21T07:34:34.793215+00:00",
        "meta_object_name": "FENGYUN 1C DEB",
        "meta_object_id": "1999-025AEE",
        "meta_epoch": "2025-12-19T10:11:45.140064",
        "meta_mean_motion": 13.68954565,
        "meta_eccentricity": 0.023966,
        "meta_inclination": 99.6456,
        "meta_ra_of_asc_node": 53.6804,
        "meta_arg_of_pericenter": 252.151,
        "meta_mean_anomaly": 246.4978,
        "meta_ephemeris_type": 0,
        "meta_classification_type": "U",
        "meta_norad_cat_id": 30415,
        "meta_element_set_no": 999,
        "meta_rev_at_epoch": 93969,
        "meta_bstar": 0.0011757,
        "meta_mean_motion_dot": 1.194e-05,
        "meta_mean_motion_ddot": 0,
        "tle_line1": "1 30415U 99025AEE 25353.42482801  .00001194  00000+0  11757-2 0  9992",
        "tle_line2": "2 30415  99.6456  53.6804 0239660 252.1510 246.4978 13.68954565939690"
      },
      "geometry": {
        "type": "Point",
        "coordinates": [
          -41.78719066343759,
          80.26999498368328
        ]
      }
    }
  ]
}